#dP2020  5  8  0  0  0.00000000      97 __u+U IGS14 FIT  IAC
## 2104 432000.00000000   900.00000000 58977 0.0000000000000
+  124   C01C02C03C04C05C06C07C08C09C10C11C12C13C14C16C19C20
+        C21C22C23C24C25C26C27C28C29C30C32C33C34C35C36C37C38
+        C39C40C43C44C45C46C60E01E02E03E04E05E07E08E09E11E12
+        E13E14E15E18E19E21E24E25E26E27E30E31E33E36G01G02G03
+        G04G05G06G07G08G09G10G11G12G13G14G15G16G17G18G19G20
+        G21G22G23G24G25G26G27G28G29G30G31G32J01J02J03J07R01
+        R02R03R04R05R07R08R09R11R12R13R14R15R16R17R18R19R20
+        R21R22R23R24R26  0  0  0  0  0  0  0  0  0  0  0  0
++         0  0  0  0  0  0  0  0  0  0  0  0  0  0  0  0  0
++         0  0  0  0  0  0  0  0  0  0  0  0  0  0  0  0  0
++         0  0  0  0  0  0  0  0  0  0  0  0  0  0  0  0  0
++         0  0  0  0  0  0  0  0  0  0  0  0  0  0  0  0  0
++         0  0  0  0  0  0  0  0  0  0  0  0  0  0  0  0  0
++         0  0  0  0  0  0  0  0  0  0  0  0  0  0  0  0  0
++         0  0  0  0  0  0  0  0  0  0  0  0  0  0  0  0  0
++         0  0  0  0  0  0  0  0  0  0  0  0  0  0  0  0  0
%c M  cc GPS ccc cccc cccc cccc cccc ccccc ccccc ccccc ccccc
%c cc cc ccc ccc cccc cccc cccc cccc ccccc ccccc ccccc ccccc
%f  1.2500000  1.025000000  0.00000000000  0.000000000000000
%f  0.0000000  0.000000000  0.00000000000  0.000000000000000
%i    0    0    0    0      0      0      0      0         0
%i    0    0    0    0      0      0      0      0         0
/* INFORMATION & ANALYSIS CENTER (IAC)            FINAL DATA
/* S/V CLOCKS ARE ALIGNED TO GNSS TIME                      
/* G:C1WC2W R:C1PC2P E:C1XC5X C:C2IC6I J:C1CC2S             
/* PCV:IGS14_2101 OL/AL:FES2004  NONE     YN ORB:CoN CLK:CoN
*  2020 05 08 10 15  0.00000000
PC01 -34335.377098  24440.192650   -608.093368   -533.613820
PC02   4393.844711  41936.990839    471.875190    364.641907
PC03 -14797.236756  39451.225661    961.325918    635.515118
PC04 -39616.048161  14411.975854    360.756796 999999.999999
PC05  21879.798719  36038.633632    247.544680   -246.620422
PC06 -24731.767991  25038.988753 -23131.753425    729.033149
PC07 -15044.892057  37207.308418 -11895.963534    -16.248965
PC08  -7488.257274  21629.347498  35548.706555   -241.355540
PC09  -7552.137171  25827.113240 -32287.091371    525.979669
PC10  -4326.550528  41677.721590   1892.802582   -934.770840
PC11 -27873.863499    324.318472   -520.599845   -351.556412
PC12 -19299.016761 -10589.369692 -17109.317712    367.717067
PC13   6082.360207  30074.564414  29127.170692    424.335061
PC14 -18449.211011   4562.580275  20448.834278    382.636342
PC16 -20877.901695  25799.692580 -26036.868300   -651.733923
PC19  18869.798449 -14309.767980 -14744.545421    406.006715
PC20  15408.383484   4678.973463 -22769.123476   -883.142399
PC21  -2573.870597 -21611.929008  17504.054901   -375.674277
PC22  11504.743484 -25364.830443   2018.438151   -812.544994
PC23  -2886.486944  20506.937579 -18701.549001   -883.219439
PC24 -19887.128445 -14912.220670 -12671.047211   -829.451101
PC25 -15868.404914   4824.918798 -22444.357450   -609.722479
PC26 -12985.300456 -24412.415137   3635.298660    672.741754
PC27   9884.581404  14660.555216  21566.111751    326.356933
PC28 -11492.342077  14649.169903  20786.016179    317.436857
PC29  25823.794065  -7072.855586  -7863.258759    225.586911
PC30  25485.010158   5348.092230   9995.400863    313.735798
PC32   2747.370114  21558.559871 -17476.624562   -898.095242
PC33 -18835.950472  14276.540963  14833.588383   -843.710257
PC34 -25713.961212  -5162.903099  -9581.333971   -700.476745
PC35  11130.694836 -15053.923867 -20685.356136   -854.830518
PC36  16102.970747  -4209.311435  22420.952656   -827.740697
PC37  12014.984727  24831.194618  -4242.029323   -842.532385
PC38  -3712.986972  26498.919161  32629.205662     76.686246
PC39 -16345.126818  27324.339476 -27681.033957     15.409959
PC40 -10732.224465  40658.681806  -1049.916558     41.545685
PC43 -26006.258343   6773.841432   7565.488084   -184.384601
PC44 -10219.029937 -14506.192897 -21552.370026   -210.913141
PC45   2768.442686 -20436.197937  18797.592635    126.856603
PC46  19943.101855  14519.133621  13081.475413    846.118481
PC60      0.000000      0.000000      0.000000 999999.999999
PE01  14307.738416 -11074.504906  23423.003173   -852.114478
PE02 -14278.797741  11181.220079 -23401.182739    131.862701
PE03 -25131.117190  14832.399777   4918.202690   -296.369944
PE04  14100.135060 -22498.715602  13096.516651   -521.152859
PE05 -21542.714144  -1616.348248  20241.469386   -382.033727
PE07   5406.679796  16983.005708 -23618.866837   -378.897214
PE08 -13826.146915  22527.610979 -13301.204055   6181.293878
PE09  -5507.614896 -16804.116402  23749.775552   6068.047667
PE11 -16141.249190 -18380.594771 -16688.884503   2710.119344
PE12   5370.908650 -15383.828398 -24710.203075   5815.862618
PE13  15978.659869  18292.992146  16914.715781    400.679966
PE14 -20804.703167  12609.713497   6595.987468  -1006.210882
PE15  -5092.932616  15407.876797  24761.929712    867.797770
PE18  14605.071109 -20845.185884 -18884.926699  -1105.032825
PE19  25453.655809 -13449.741306  -6871.946788  -1772.997603
PE21  16300.261014  11142.795387  22046.626385   -597.759300
PE24  -8557.056526 -27301.714406  -7562.510617   5466.800117
PE25 -16283.199915 -11277.424378 -21994.975614   -510.260995
PE26  27693.256445  10371.626260  -1255.653338   3213.619787
PE27   8789.798788  27188.035146   7737.731118    224.520303
PE30  -4225.090936  27033.343072 -11319.538760   3924.205854
PE31   3851.614612 -27189.180655  11054.826644   -472.493696
PE33  23175.200285  -3474.474199 -18070.351465   -467.532518
PE36 -27691.479689 -10438.417947    877.457164    562.915828
PG01 -21979.119970 -14894.587298   2996.723766   -375.870886
PG02   8083.947957  19598.490562  16674.754360   -452.422435
PG03 -13120.944854  -9985.479781  20784.897704   -169.085794
PG04 -22151.752743  -2668.594974  14444.006942    -86.551774
PG05   2682.878163  25237.350979  -7610.916376    -12.280279
PG06  -2952.980667  15758.014942  21220.022375   -267.659874
PG07 -20251.710708   -664.981114 -17117.304110   -276.306169
PG08 -13099.326615 -10013.221635 -20862.704379    -33.267060
PG09 -25195.510479   6940.782898   4747.010157   -213.204395
PG10  11575.217747 -20148.950342 -12557.018617   -334.493494
PG11 -20126.564034 -13103.181648 -11494.500537   -283.266445
PG12  11568.504779  11945.509926  20513.087128    120.361227
PG13   4336.871041  14487.758551 -21953.252857      8.305168
PG14  10885.707580 -16550.786297  17948.250552    -14.419751
PG15  15004.894385   9235.393022 -20280.013582   -232.660580
PG16   -898.019942 -24589.291349  -9609.205572   -155.685942
PG17 -19293.357431  14526.715395  11420.388785    261.346790
PG18  20407.915049   1547.800006 -16960.554143    182.833818
PG19 -13293.807721  15440.328541  16730.100394   -161.631182
PG20  14751.876001  -9772.486946 -19824.645141    527.727181
PG21      0.000000      0.000000      0.000000 999999.999999
PG22 -10858.638265 -18542.967127  15913.440436   -782.953030
PG23 -25444.429433   6313.630562   5885.028943   -115.909049
PG24  22338.591348  14703.379727    782.996736    -12.747481
PG25  15049.260808    434.306979  21627.434495      2.412988
PG26   4665.609169 -25888.477187   2610.088460    202.414715
PG27  -1531.577644 -15223.108876 -21811.576433   -288.027932
PG28 -12234.079398  20897.523036 -10492.490983    719.160938
PG29  25281.369801  -2911.761001   7598.591463    -99.433408
PG30 -12591.606065   9727.173713 -21246.345981   -215.517682
PG31   2368.468959 -16649.700243  20406.642062    -41.018139
PG32  17884.613048 -15985.640540  11324.949970    276.175070
PJ01 -32589.323984  26016.270923  11183.979206   -308.336007
PJ02 -18219.125072  26400.318245 -22997.512424     -2.751354
PJ03 -30650.944949  25805.256371  18271.525945     -2.748113
PJ07 -25409.066846  33651.263771    -29.881123     -0.013350
PR01 -11956.407490  21413.986984  -6972.301684     61.201079
PR02   3163.730220  12681.643930 -21869.873399    425.652820
PR03  14731.984745  -2879.149961 -20563.058057     14.641892
PR04  17667.828337 -16741.500047  -7598.233561     48.370007
PR05  10739.141784 -21000.917815   9702.330440     50.082898
PR07 -15049.655904   3426.158431  20361.808817    -36.289694
PR08 -17765.072532  16637.773246   7712.375609    -52.095773
PR09 -12698.350606 -20620.432497  -8113.122361    131.438342
PR11  -7894.712006   9359.357839 -22359.745567    -22.855687
PR12   2242.033636  21868.581628 -12934.364598    129.026931
PR13  11544.651266  22315.241758   4380.891133    -38.437061
PR14  13798.850128   9622.015932  19177.533139     50.983431
PR15   8205.474566  -8446.146062  22644.010513    106.437402
PR16  -2855.457298 -21999.167206  12456.109501     -3.373695
PR17  24941.446534   4823.352284   2494.081180    323.162963
PR18  21083.680012  -3168.334892 -13945.632063     34.636624
PR19   6688.230053  -9166.009455 -22846.941754    -92.335701
PR20 -14229.483844 -10754.125191 -18253.286376   -411.136251
PR21 -25059.067381  -4449.591305  -1544.075671   -123.119918
PR22 -19516.564296   4187.379376  15963.296968     -0.226489
PR23    882.737748  10632.822028  23159.153459    304.151748
PR24  14846.541284  10928.708514  17646.918743     -2.483414
PR26  -9886.316269 -10943.640003 -20795.664956   -396.135959
EOF
